OBJECT_NAME,OBJECT_ID,EPOCH,MEAN_MOTION,ECCENTRICITY,INCLINATION,RA_OF_ASC_NODE,ARG_OF_PERICENTER,MEAN_ANOMALY,EPHEMERIS_TYPE,CLASSIFICATION_TYPE,NORAD_CAT_ID,ELEMENT_SET_NO,REV_AT_EPOCH,BSTAR,MEAN_MOTION_DOT,MEAN_MOTION_DDOT
SAR-LUPE 2,2007-030A,2026-07-17T06:12:31.464864,15.53713664,.00050489,98.1069,306.5251,195.3376,164.7723,0,U,31797,999,6160,.26502708E-3,.16862E-3,0
SAPPHIRE,2013-009C,2026-07-17T06:41:15.078336,14.35247880,.00117076,98.4276,17.0221,153.9693,206.2084,0,U,39088,999,70089,.24493468E-4,.27E-6,0
PRAETORIAN SDA_602,2025-203A,2026-07-16T21:08:59.662176,13.83887999,.00071,81.3046,343.2754,113.7362,246.4540,0,U,65565,999,4280,.19872191E-4,.34E-6,0
PRAETORIAN SDA_603,2025-203B,2026-07-16T21:49:35.781024,13.83960821,.00108137,81.3054,343.1708,109.9839,250.2483,0,U,65566,999,4281,.97326723E-4,.12E-5,0
PRAETORIAN SDA_604,2025-203C,2026-07-16T12:20:16.175040,13.83050104,.0006613,81.3068,343.9947,118.4051,241.7772,0,U,65567,999,4273,.1305537E-4,.26E-6,0
PRAETORIAN SDA_605,2025-203D,2026-07-17T08:11:58.390656,13.83200273,.00093463,81.3032,342.8694,108.0597,252.1578,0,U,65568,999,4286,.34336464E-4,.5E-6,0
PRAETORIAN SDA_606,2025-203E,2026-07-16T21:25:38.683776,13.83200128,.00072037,81.3069,343.5232,112.1622,248.0299,0,U,65569,999,4279,.11845128E-4,.25E-6,0
PRAETORIAN SDA_607,2025-203F,2026-07-16T21:10:46.493184,13.83758600,.00099768,81.3053,343.1508,110.0713,250.1519,0,U,65570,999,4281,.1124607E-3,.136E-5,0
PRAETORIAN SDA_608,2025-203G,2026-07-16T22:29:37.174848,13.83819573,.00071119,81.3022,343.2632,116.1552,244.0336,0,U,65571,999,4280,.25626185E-4,.4E-6,0
PRAETORIAN SDA_609,2025-203H,2026-07-16T22:24:33.497856,13.84211863,.00079647,81.3064,343.2441,111.0306,249.1704,0,U,65572,999,4281,.13225968E-3,.159E-5,0
PRAETORIAN SDA_610,2025-203J,2026-07-16T20:19:56.472960,13.83528361,.00078314,81.3023,343.3104,115.8235,244.3730,0,U,65573,999,4279,.42780455E-4,.59E-6,0
PRAETORIAN SDA_611,2025-203K,2026-07-16T20:33:08.772192,13.83311093,.00067083,81.3032,343.4851,120.1020,240.0802,0,U,65574,999,4278,.11764022E-3,.141E-5,0
PRAETORIAN SDA_612,2025-203L,2026-07-16T12:28:46.824096,13.85040844,.00103909,81.3044,343.3106,111.9227,248.3036,0,U,65575,999,4277,.72675498E-4,.94E-6,0
PRAETORIAN SDA_613,2025-203M,2026-07-16T20:59:38.755104,13.82767786,.00068053,81.3014,343.4882,111.1874,249.0010,0,U,65576,999,4278,.24246392E-4,.38E-6,0
PRAETORIAN SDA_614,2025-203N,2026-07-16T12:21:10.461888,13.84778625,.0008244,81.3029,343.4006,110.1451,250.0594,0,U,65577,999,4277,.11936802E-4,.25E-6,0
PRAETORIAN SDA_615,2025-203P,2026-07-16T22:22:42.110976,13.84438796,.00101757,81.3038,342.9956,109.5986,250.6271,0,U,65578,999,4282,.11323551E-3,.139E-5,0
PRAETORIAN SDA_616,2025-203Q,2026-07-16T20:33:17.153856,13.83270160,.00065872,81.3077,343.6500,118.3182,241.8639,0,U,65579,999,4278,.17983744E-3,.209E-5,0
PRAETORIAN SDA_617,2025-203R,2026-07-16T12:27:12.517632,13.83152201,.00085045,81.3052,343.7907,110.4767,249.7302,0,U,65580,999,4274,.20699723E-4,.35E-6,0
PRAETORIAN SDA_618,2025-203S,2026-07-16T21:36:03.865536,13.84225324,.00109017,81.3035,342.9583,112.6228,247.6083,0,U,65581,999,4282,.12248696E-3,.149E-5,0
PRAETORIAN SDA_619,2025-203T,2026-07-16T12:20:22.443360,13.83804919,.00092918,81.3060,343.6454,111.4394,248.7755,0,U,65582,999,4338,-.25856709E-4,-.17E-6,0
PRAETORIAN SDA_620,2025-203U,2026-07-16T21:52:32.976192,13.83205552,.00087792,81.3050,343.3115,107.3721,252.8395,0,U,65583,999,4280,.93130867E-4,.114E-5,0
PRAETORIAN SDA_621,2025-203V,2026-07-16T12:23:01.272480,13.83803833,.00085043,81.3035,343.5756,105.8708,254.3386,0,U,65584,999,4275,.1266533E-4,.26E-6,0
PRAETORIAN SDA_601,2025-203W,2026-07-16T12:00:03.799008,13.83169206,.0006545,81.3062,343.9197,122.0492,238.1300,0,U,65585,999,4273,-.12251E-3,-.122E-5,0
VICTUS HAZE PUMA,2026-142A,2026-07-17T06:50:10.926816,15.21130484,.00264096,97.4460,95.5636,259.4735,100.3525,0,U,69646,999,424,.10157172E-3,.2209E-4,0
